HULIANWANG DIGUI 18J    
1 67443U 26007J   26018.99831535  .00000090  00000+0  18253-3 0  9999
2 67443  50.0099 273.0765 0006066 295.0000  65.0270 13.92553730   753
CZ-8A R/B               
1 67444U 26007K   26018.99052959 -.00000223  00000+0 -33698-4 0  9996
2 67444  50.0097 272.3689 0092160 101.4320 259.6957 14.13544694   750
ALSAT-3A                
1 67474U 26009A   26018.95551866  .00007057  00000+0  29897-3 0  9993
2 67474  97.4722  93.7149 0011430 254.3254 105.6722 15.23408357   582
CZ-2C R/B               
1 67475U 26009B   26018.94028766  .00004350  00000+0  29552-3 0  9992
2 67475  97.1815  93.1280 0098983 209.8069 149.7498 15.02892713   578
TRANSPORTER-15DT        
1 67483U 25276DT  26017.61582459  .00001158  00000+0  10212-3 0  9999
2 67483  97.5470  93.5003 0008917 314.8090  45.2407 14.98282882    73
