CCSDS_OMM_VERS = 2.0
CREATION_DATE  = 
ORIGINATOR     = 

OBJECT_NAME    = HULIANWANG DIGUI 18J
OBJECT_ID      = 2026-007J
CENTER_NAME    = EARTH
REF_FRAME      = TEME
TIME_SYSTEM    = UTC
MEAN_ELEMENT_THEORY = SGP/SGP4

EPOCH          = 2026-01-18T23:57:34.446240
MEAN_MOTION    = 13.92553730
ECCENTRICITY   = .00060661
INCLINATION    = 50.0099
RA_OF_ASC_NODE = 273.0765
ARG_OF_PERICENTER = 295.0000
MEAN_ANOMALY   = 65.0270

EPHEMERIS_TYPE = 0
CLASSIFICATION_TYPE = U
NORAD_CAT_ID   = 67443
ELEMENT_SET_NO = 999
REV_AT_EPOCH   = 75
BSTAR          = .18252526E-3
MEAN_MOTION_DOT = .9E-6
MEAN_MOTION_DDOT = 0

CCSDS_OMM_VERS = 2.0
CREATION_DATE  = 
ORIGINATOR     = 

OBJECT_NAME    = CZ-8A R/B
OBJECT_ID      = 2026-007K
CENTER_NAME    = EARTH
REF_FRAME      = TEME
TIME_SYSTEM    = UTC
MEAN_ELEMENT_THEORY = SGP/SGP4

EPOCH          = 2026-01-18T23:46:21.756576
MEAN_MOTION    = 14.13544694
ECCENTRICITY   = .00921607
INCLINATION    = 50.0097
RA_OF_ASC_NODE = 272.3689
ARG_OF_PERICENTER = 101.4320
MEAN_ANOMALY   = 259.6957

EPHEMERIS_TYPE = 0
CLASSIFICATION_TYPE = U
NORAD_CAT_ID   = 67444
ELEMENT_SET_NO = 999
REV_AT_EPOCH   = 75
BSTAR          = -.33697545E-4
MEAN_MOTION_DOT = -.223E-5
MEAN_MOTION_DDOT = 0

CCSDS_OMM_VERS = 2.0
CREATION_DATE  = 
ORIGINATOR     = 

OBJECT_NAME    = ALSAT-3A
OBJECT_ID      = 2026-009A
CENTER_NAME    = EARTH
REF_FRAME      = TEME
TIME_SYSTEM    = UTC
MEAN_ELEMENT_THEORY = SGP/SGP4

EPOCH          = 2026-01-18T22:55:56.812224
MEAN_MOTION    = 15.23408357
ECCENTRICITY   = .00114308
INCLINATION    = 97.4722
RA_OF_ASC_NODE = 93.7149
ARG_OF_PERICENTER = 254.3254
MEAN_ANOMALY   = 105.6722

EPHEMERIS_TYPE = 0
CLASSIFICATION_TYPE = U
NORAD_CAT_ID   = 67474
ELEMENT_SET_NO = 999
REV_AT_EPOCH   = 58
BSTAR          = .29896716E-3
MEAN_MOTION_DOT = .7057E-4
MEAN_MOTION_DDOT = 0

CCSDS_OMM_VERS = 2.0
CREATION_DATE  = 
ORIGINATOR     = 

OBJECT_NAME    = CZ-2C R/B
OBJECT_ID      = 2026-009B
CENTER_NAME    = EARTH
REF_FRAME      = TEME
TIME_SYSTEM    = UTC
MEAN_ELEMENT_THEORY = SGP/SGP4

EPOCH          = 2026-01-18T22:34:00.853824
MEAN_MOTION    = 15.02892713
ECCENTRICITY   = .00989835
INCLINATION    = 97.1815
RA_OF_ASC_NODE = 93.1280
ARG_OF_PERICENTER = 209.8069
MEAN_ANOMALY   = 149.7498

EPHEMERIS_TYPE = 0
CLASSIFICATION_TYPE = U
NORAD_CAT_ID   = 67475
ELEMENT_SET_NO = 999
REV_AT_EPOCH   = 57
BSTAR          = .29552251E-3
MEAN_MOTION_DOT = .435E-4
MEAN_MOTION_DDOT = 0

CCSDS_OMM_VERS = 2.0
CREATION_DATE  = 
ORIGINATOR     = 

OBJECT_NAME    = TRANSPORTER-15DT
OBJECT_ID      = 2025-276DT
CENTER_NAME    = EARTH
REF_FRAME      = TEME
TIME_SYSTEM    = UTC
MEAN_ELEMENT_THEORY = SGP/SGP4

EPOCH          = 2026-01-17T14:46:47.244576
MEAN_MOTION    = 14.98282882
ECCENTRICITY   = .00089173
INCLINATION    = 97.5470
RA_OF_ASC_NODE = 93.5003
ARG_OF_PERICENTER = 314.8090
MEAN_ANOMALY   = 45.2407

EPHEMERIS_TYPE = 0
CLASSIFICATION_TYPE = U
NORAD_CAT_ID   = 67483
ELEMENT_SET_NO = 999
REV_AT_EPOCH   = 7
BSTAR          = .10211543E-3
MEAN_MOTION_DOT = .1158E-4
MEAN_MOTION_DDOT = 0

